{
  "norad_id": 64855,
  "name": "STARLINK-34631",
  "history": [
    {
      "epoch": "2026-03-28T14:35:57.322176Z",
      "apogee_km": 550.9887084691891,
      "perigee_km": 548.0209067188152,
      "latitude_deg": 5.76009355244028e-05,
      "longitude_deg": -100.86925600631052,
      "height_km": 552.3480223415397,
      "semi_major_axis_km": 6927.641807594002,
      "eccentricity": 0.0002142,
      "inclination_deg": 97.6045,
      "raan_deg": 304.1459,
      "arg_perigee_deg": 81.5369,
      "mean_anomaly_deg": 278.6101,
      "mean_motion_rev_day": 15.05652069
    },
    {
      "epoch": "2026-03-29T03:21:33.339744Z",
      "apogee_km": 550.9986765402782,
      "perigee_km": 548.0100920470932,
      "latitude_deg": -6.915449197446253e-05,
      "longitude_deg": 67.73075276272915,
      "height_km": 552.3294570316045,
      "semi_major_axis_km": 6927.641384293685,
      "eccentricity": 0.0002157,
      "inclination_deg": 97.6045,
      "raan_deg": 304.67,
      "arg_perigee_deg": 80.8925,
      "mean_anomaly_deg": 279.2545,
      "mean_motion_rev_day": 15.05652207
    },
    {
      "epoch": "2026-03-30T01:41:21.235488Z",
      "apogee_km": 550.8986639902241,
      "perigee_km": 548.0551555848133,
      "latitude_deg": -6.01983596080539e-05,
      "longitude_deg": 92.78162716745557,
      "height_km": 551.8764285741273,
      "semi_major_axis_km": 6927.613909787518,
      "eccentricity": 0.00020523,
      "inclination_deg": 97.6044,
      "raan_deg": 305.5875,
      "arg_perigee_deg": 62.2243,
      "mean_anomaly_deg": 297.9191,
      "mean_motion_rev_day": 15.05661164
    },
    {
      "epoch": "2026-03-30T12:51:15.378624Z",
      "apogee_km": 551.2021471812268,
      "perigee_km": 547.7832233789477,
      "latitude_deg": -7.878661722374133e-05,
      "longitude_deg": -74.69399811696326,
      "height_km": 552.3217794758891,
      "semi_major_axis_km": 6927.629685280087,
      "eccentricity": 0.00024676,
      "inclination_deg": 97.6041,
      "raan_deg": 306.046,
      "arg_perigee_deg": 82.2014,
      "mean_anomaly_deg": 277.9492,
      "mean_motion_rev_day": 15.05656021
    },
    {
      "epoch": "2026-03-30T20:49:45.393600Z",
      "apogee_km": 551.2210628454814,
      "perigee_km": 547.7633445573292,
      "latitude_deg": -3.979740321545763e-06,
      "longitude_deg": 165.68110815204088,
      "height_km": 552.3217146939313,
      "semi_major_axis_km": 6927.629203701405,
      "eccentricity": 0.00024956,
      "inclination_deg": 97.6036,
      "raan_deg": 306.3737,
      "arg_perigee_deg": 82.305,
      "mean_anomaly_deg": 277.846,
      "mean_motion_rev_day": 15.05656178
    },
    {
      "epoch": "2026-03-31T12:46:45.473664Z",
      "apogee_km": 551.232727073253,
      "perigee_km": 547.7571341336698,
      "latitude_deg": 2.748567177092518e-06,
      "longitude_deg": -73.56916957843485,
      "height_km": 552.4012210666771,
      "semi_major_axis_km": 6927.631930603461,
      "eccentricity": 0.00025085,
      "inclination_deg": 97.604,
      "raan_deg": 307.0288,
      "arg_perigee_deg": 84.8937,
      "mean_anomaly_deg": 275.2576,
      "mean_motion_rev_day": 15.05655289
    },
    {
      "epoch": "2026-04-01T20:40:45.420384Z",
      "apogee_km": 551.3295531056137,
      "perigee_km": 547.6703752611311,
      "latitude_deg": 4.2357734120155075e-05,
      "longitude_deg": 167.93076304201912,
      "height_km": 552.3169574726883,
      "semi_major_axis_km": 6927.636964183372,
      "eccentricity": 0.0002641,
      "inclination_deg": 97.6029,
      "raan_deg": 308.3386,
      "arg_perigee_deg": 82.3438,
      "mean_anomaly_deg": 277.8089,
      "mean_motion_rev_day": 15.05653648
    },
    {
      "epoch": "2026-04-02T12:37:45.368256Z",
      "apogee_km": 551.344648682275,
      "perigee_km": 547.6397525857747,
      "latitude_deg": 6.137123165182525e-05,
      "longitude_deg": -71.31706437218264,
      "height_km": 552.4270304081838,
      "semi_major_axis_km": 6927.6292006340245,
      "eccentricity": 0.0002674,
      "inclination_deg": 97.6018,
      "raan_deg": 308.9956,
      "arg_perigee_deg": 86.1035,
      "mean_anomaly_deg": 274.0498,
      "mean_motion_rev_day": 15.05656179
    },
    {
      "epoch": "2026-04-03T14:08:57.288480Z",
      "apogee_km": 551.3375766685131,
      "perigee_km": 547.6396101267583,
      "latitude_deg": 2.1228965916516927e-05,
      "longitude_deg": -94.1176946064309,
      "height_km": 552.3540208064551,
      "semi_major_axis_km": 6927.625593397635,
      "eccentricity": 0.0002669,
      "inclination_deg": 97.6029,
      "raan_deg": 310.0427,
      "arg_perigee_deg": 83.9377,
      "mean_anomaly_deg": 276.2154,
      "mean_motion_rev_day": 15.05657355
    },
    {
      "epoch": "2026-04-04T12:28:45.574752Z",
      "apogee_km": 551.406810701189,
      "perigee_km": 547.6403801886572,
      "latitude_deg": -5.833718782738305e-05,
      "longitude_deg": -69.06934114942688,
      "height_km": 552.3434370297241,
      "semi_major_axis_km": 6927.660595444923,
      "eccentricity": 0.00027184,
      "inclination_deg": 97.6021,
      "raan_deg": 310.9593,
      "arg_perigee_deg": 82.654,
      "mean_anomaly_deg": 277.4995,
      "mean_motion_rev_day": 15.05645944
    },
    {
      "epoch": "2026-04-05T13:59:57.883776Z",
      "apogee_km": 551.3363264818727,
      "perigee_km": 547.700692870394,
      "latitude_deg": 5.3814146731096305e-05,
      "longitude_deg": -91.87091782062964,
      "height_km": 552.3290825273552,
      "semi_major_axis_km": 6927.655509676133,
      "eccentricity": 0.0002624,
      "inclination_deg": 97.6021,
      "raan_deg": 312.0071,
      "arg_perigee_deg": 82.0882,
      "mean_anomaly_deg": 278.0643,
      "mean_motion_rev_day": 15.05647602
    },
    {
      "epoch": "2026-04-05T13:59:57.884640Z",
      "apogee_km": 551.3363264818727,
      "perigee_km": 547.700692870394,
      "latitude_deg": 5.380980294256402e-05,
      "longitude_deg": -91.87092142991216,
      "height_km": 552.3290825280568,
      "semi_major_axis_km": 6927.655509676133,
      "eccentricity": 0.0002624,
      "inclination_deg": 97.6021,
      "raan_deg": 312.0071,
      "arg_perigee_deg": 82.0882,
      "mean_anomaly_deg": 278.0643,
      "mean_motion_rev_day": 15.05647602
    },
    {
      "epoch": "2026-04-06T04:21:15.918336Z",
      "apogee_km": 551.2786183172066,
      "perigee_km": 547.7421928695985,
      "latitude_deg": -6.716887133147411e-05,
      "longitude_deg": 52.80411374572565,
      "height_km": 552.3428633218233,
      "semi_major_axis_km": 6927.647405593402,
      "eccentricity": 0.00025524,
      "inclination_deg": 97.6022,
      "raan_deg": 312.5968,
      "arg_perigee_deg": 82.5756,
      "mean_anomaly_deg": 277.576,
      "mean_motion_rev_day": 15.05650244
    }
  ]
}